NORAD_CAT_ID,OBJECT_NAME,OBJECT_TYPE,EPOCH,MEAN_MOTION,ECCENTRICITY,INCLINATION,RA_OF_ASC_NODE,ARG_OF_PERICENTER,MEAN_ANOMALY,BSTAR,MEAN_MOTION_DOT,MEAN_MOTION_DDOT,TLE_LINE0,TLE_LINE1,TLE_LINE2,SEMIMAJOR_AXIS,PERIOD,APOGEE,PERIGEE,DECAYED
53994.0,STARLINK-5125,PAYLOAD,2023-12-31 18:20:26,15.08838474,0.0001298,53.2148,200.5168,81.2873,278.8266,0.00027095,4.027e-05,0.0,0 STARLINK-5125,1 53994U 22125AG  23365.76419032  .00004027  00000-0  27095-3 0  9992,2 53994  53.2148 200.5168 0001298  81.2873 278.8266 15.08838474 68850,6917.885,95.438,540.648,538.852,0.0
53994.0,STARLINK-5125,PAYLOAD,2024-01-01 13:25:03,15.08843445,0.0001295,53.2149,196.9482,80.5817,279.5322,0.00020362,2.954e-05,0.0,0 STARLINK-5125,1 53994U 22125AG  24001.55906864  .00002954  00000-0  20362-3 0  9998,2 53994  53.2149 196.9482 0001295  80.5817 279.5322 15.08843445 68973,6917.87,95.437,540.631,538.839,0.0
53994.0,STARLINK-5125,PAYLOAD,2024-01-01 18:11:12,15.0884501,0.0001292,53.215,196.0558,81.9669,278.1469,0.00020114,2.915e-05,0.0,0 STARLINK-5125,1 53994U 22125AG  24001.75778749  .00002915  00000-0  20114-3 0  9991,2 53994  53.2150 196.0558 0001292  81.9669 278.1469 15.08845010 69009,6917.865,95.437,540.624,538.836,0.0
53994.0,STARLINK-5125,PAYLOAD,2024-01-02 18:01:59,15.08842876,0.0001304,53.2152,191.5941,92.1533,267.9608,5.262e-05,5.5e-06,0.0,0 STARLINK-5125,1 53994U 22125AG  24002.75138547  .00000550  00000-0  52620-4 0  9999,2 53994  53.2152 191.5941 0001304  92.1533 267.9608 15.08842876 69227,6917.872,95.437,540.639,538.835,0.0
53994.0,STARLINK-5125,PAYLOAD,2024-01-02 21:12:46,15.08840825,0.0001305,53.2152,190.9994,92.5263,267.5878,1.4053e-05,-6.4e-07,0.0,0 STARLINK-5125,1 53994U 22125AG  24002.88386598 -.00000064  00000-0  14053-4 0  9993,2 53994  53.2152 190.9994 0001305  92.5263 267.5878 15.08840825 69174,6917.878,95.438,540.646,538.84,0.0
53994.0,STARLINK-5125,PAYLOAD,2024-01-03 19:28:10,15.08835681,0.0001278,53.2159,186.8363,91.21,268.9039,-1.18e-05,-4.76e-06,0.0,0 STARLINK-5125,1 53994U 22125AG  24003.81123445 -.00000476  00000-0 -11800-4 0  9992,2 53994  53.2159 186.8363 0001278  91.2100 268.9039 15.08835681 69381,6917.894,95.438,540.643,538.874,0.0
53994.0,STARLINK-5125,PAYLOAD,2024-01-03 22:38:56,15.08835474,0.0001272,53.2158,186.242,89.7649,270.3489,-1.4001e-05,-5.11e-06,0.0,0 STARLINK-5125,1 53994U 22125AG  24003.94371514 -.00000511  00000-0 -14001-4 0  9994,2 53994  53.2158 186.2420 0001272  89.7649 270.3489 15.08835474 69333,6917.894,95.438,540.639,538.879,0.0
53994.0,STARLINK-5125,PAYLOAD,2024-01-04 20:54:20,15.08838291,0.000127,53.2158,182.0792,88.2996,271.8141,7.2876e-05,8.72e-06,0.0,0 STARLINK-5125,1 53994U 22125AG  24004.87107281  .00000872  00000-0  72876-4 0  9997,2 53994  53.2158 182.0792 0001270  88.2996 271.8141 15.08838291 69540,6917.886,95.438,540.629,538.872,0.0
53994.0,STARLINK-5125,PAYLOAD,2024-01-05 11:12:49,15.0883538,0.0001324,53.2158,179.403,84.1681,275.9462,9.2305e-05,1.181e-05,0.0,0 STARLINK-5125,1 53994U 22125AG  24005.46723645  .00001181  00000-0  92305-4 0  9994,2 53994  53.2158 179.4030 0001324  84.1681 275.9462 15.08835380 69560,6917.895,95.438,540.675,538.844,0.0
53994.0,STARLINK-5125,PAYLOAD,2024-01-05 20:45:07,15.08838894,0.0001352,53.216,177.6186,83.0868,277.0278,0.00011569,1.554e-05,0.0,0 STARLINK-5125,1 53994U 22125AG  24005.86467534  .00001554  00000-0  11569-3 0  9996,2 53994  53.2160 177.6186 0001352  83.0868 277.0278 15.08838894 69629,6917.884,95.438,540.684,538.813,0.0
53994.0,STARLINK-5125,PAYLOAD,2024-01-06 11:03:35,15.08843186,0.0001331,53.2161,174.9419,85.8975,274.2169,0.00010231,1.341e-05,0.0,0 STARLINK-5125,1 53994U 22125AG  24006.46083303  .00001341  00000-0  10231-3 0  9990,2 53994  53.2161 174.9419 0001331  85.8975 274.2169 15.08843186 69780,6917.871,95.437,540.656,538.815,0.0
53994.0,STARLINK-5125,PAYLOAD,2024-01-06 17:25:08,15.08846621,0.0001314,53.2161,173.7526,86.3572,273.757,0.00010986,1.461e-05,0.0,0 STARLINK-5125,1 53994U 22125AG  24006.72579021  .00001461  00000-0  10986-3 0  9996,2 53994  53.2161 173.7526 0001314  86.3572 273.7570 15.08846621 69750,6917.86,95.437,540.634,538.816,0.0
53994.0,STARLINK-5125,PAYLOAD,2024-01-07 14:05:09,15.08842371,0.0001313,53.2162,169.8871,85.0963,275.0179,6.3746e-05,7.27e-06,0.0,0 STARLINK-5125,1 53994U 22125AG  24007.58691343  .00000727  00000-0  63746-4 0  9990,2 53994  53.2162 169.8871 0001313  85.0963 275.0179 15.08842371 69881,6917.873,95.437,540.646,538.83,0.0
53994.0,STARLINK-5125,PAYLOAD,2024-01-07 17:15:55,15.08842759,0.0001272,53.2162,169.2922,87.8545,272.2593,6.2009e-05,6.99e-06,0.0,0 STARLINK-5125,1 53994U 22125AG  24007.71939268  .00000699  00000-0  62009-4 0  9995,2 53994  53.2162 169.2922 0001272  87.8545 272.2593 15.08842759 69971,6917.872,95.437,540.617,538.857,0.0
53994.0,STARLINK-5125,PAYLOAD,2024-01-07 20:26:41,15.08842984,0.0001271,53.2162,168.6975,88.5047,271.6091,5.9887e-05,6.65e-06,0.0,0 STARLINK-5125,1 53994U 22125AG  24007.85187196  .00000665  00000-0  59887-4 0  9998,2 53994  53.2162 168.6975 0001271  88.5047 271.6091 15.08842984 69927,6917.871,95.437,540.616,538.857,0.0
53994.0,STARLINK-5125,PAYLOAD,2024-01-08 13:55:56,15.08840596,0.0001258,53.2161,165.4263,91.39,268.7236,4.8122e-06,-2.11e-06,0.0,0 STARLINK-5125,1 53994U 22125AG  24008.58051436 -.00000211  00000-0  48122-5 0  9995,2 53994  53.2161 165.4263 0001258  91.3900 268.7236 15.08840596 70035,6917.879,95.438,540.614,538.873,0.0
53994.0,STARLINK-5125,PAYLOAD,2024-01-08 15:31:19,15.08841061,0.0001264,53.2162,165.1289,90.1853,269.9284,5.4205e-06,-2.02e-06,0.0,0 STARLINK-5125,1 53994U 22125AG  24008.64675392 -.00000202  00000-0  54205-5 0  9994,2 53994  53.2162 165.1289 0001264  90.1853 269.9284 15.08841061 70047,6917.877,95.437,540.617,538.868,0.0
53994.0,STARLINK-5125,PAYLOAD,2024-01-09 10:35:57,15.08837572,0.0001281,53.2164,161.5596,91.1086,269.0053,4.1243e-05,3.69e-06,0.0,0 STARLINK-5125,1 53994U 22125AG  24009.44163542  .00000369  00000-0  41243-4 0  9992,2 53994  53.2164 161.5596 0001281  91.1086 269.0053 15.08837572 70236,6917.888,95.438,540.639,538.867,0.0
53994.0,STARLINK-5125,PAYLOAD,2024-01-09 13:46:43,15.08838272,0.0001275,53.2164,160.9649,94.0209,266.0929,4.539e-05,4.35e-06,0.0,0 STARLINK-5125,1 53994U 22125AG  24009.57411512  .00000435  00000-0  45390-4 0  9990,2 53994  53.2164 160.9649 0001275  94.0209 266.0929 15.08838272 70181,6917.886,95.438,540.633,538.869,0.0
53994.0,STARLINK-5125,PAYLOAD,2024-01-09 16:57:29,15.08841012,0.0001289,53.2165,160.3703,88.2601,271.8538,6.7243e-05,7.82e-06,0.0,0 STARLINK-5125,1 53994U 22125AG  24009.70659306  .00000782  00000-0  67243-4 0  9996,2 53994  53.2165 160.3703 0001289  88.2601 271.8538 15.08841012 70202,6917.877,95.437,540.634,538.851,0.0
53994.0,STARLINK-5125,PAYLOAD,2024-01-10 08:51:21,15.08833963,0.0001301,53.2163,157.3967,89.9747,270.1394,4.1827e-05,3.78e-06,0.0,0 STARLINK-5125,1 53994U 22125AG  24010.36899994  .00000378  00000-0  41827-4 0  9990,2 53994  53.2163 157.3967 0001301  89.9747 270.1394 15.08833963 70301,6917.899,95.438,540.664,538.864,0.0
53994.0,STARLINK-5125,PAYLOAD,2024-01-10 16:48:16,15.08841075,0.0001254,53.2162,155.9104,93.0366,267.0769,8.1503e-05,1.01e-05,0.0,0 STARLINK-5125,1 53994U 22125AG  24010.70019491  .00001010  00000-0  81503-4 0  9993,2 53994  53.2162 155.9104 0001254  93.0366 267.0769 15.08841075 70424,6917.877,95.437,540.61,538.875,0.0
53994.0,STARLINK-5125,PAYLOAD,2024-01-11 15:03:40,15.08841505,0.0001632,53.2172,151.7458,91.935,268.1829,6.757e-05,7.88e-06,0.0,0 STARLINK-5125,1 53994U 22125AG  24011.62755785  .00000788  00000-0  67570-4 0  9997,2 53994  53.2172 151.7458 0001632  91.9350 268.1829 15.08841505 70495,6917.876,95.437,540.87,538.612,0.0
53994.0,STARLINK-5125,PAYLOAD,2024-01-11 18:14:27,15.08844936,0.0001425,53.2177,151.1503,82.9582,277.1572,0.00010453,1.376e-05,0.0,0 STARLINK-5125,1 53994U 22125AG  24011.76003484  .00001376  00000-0  10453-3 0  9995,2 53994  53.2177 151.1503 0001425  82.9582 277.1572 15.08844936 70588,6917.865,95.437,540.716,538.745,0.0
53994.0,STARLINK-5125,PAYLOAD,2024-01-12 13:19:05,15.08836151,0.0001787,53.2174,147.5887,57.3588,302.7576,6.9327e-05,8.15e-06,0.0,0 STARLINK-5125,1 53994U 22125AG  24012.55492520  .00000815  00000-0  69327-4 0  9998,2 53994  53.2174 147.5887 0001787  57.3588 302.7576 15.08836151 70637,6917.892,95.438,540.993,538.521,0.0
53994.0,STARLINK-5125,PAYLOAD,2024-01-12 16:29:50,15.08858527,0.000147,53.2173,146.9928,65.4578,294.6567,-0.00017824,-3.125e-05,0.0,0 STARLINK-5125,1 53994U 22125AG  24012.68739475 -.00003125  00000-0 -17824-3 0  9998,2 53994  53.2173 146.9928 0001470  65.4578 294.6567 15.08858527 70655,6917.824,95.436,540.706,538.672,0.0
53994.0,STARLINK-5125,PAYLOAD,2024-01-13 08:23:43,15.08841499,0.0001643,53.2172,144.0201,72.4441,287.6731,4.5599e-07,-2.81e-06,0.0,0 STARLINK-5125,1 53994U 22125AG  24013.34980514 -.00000281  00000-0  45599-6 0  9996,2 53994  53.2172 144.0201 0001643  72.4441 287.6731 15.08841499 70820,6917.876,95.437,540.877,538.604,0.0
53994.0,STARLINK-5125,PAYLOAD,2024-01-13 14:45:15,15.08842462,0.000164,53.2171,142.8305,72.0608,288.0563,1.3817e-05,-6.8e-07,0.0,0 STARLINK-5125,1 53994U 22125AG  24013.61476435 -.00000068  00000-0  13817-4 0  9997,2 53994  53.2171 142.8305 0001640  72.0608 288.0563 15.08842462 70793,6917.873,95.437,540.872,538.603,0.0
53994.0,STARLINK-5125,PAYLOAD,2024-01-13 17:56:01,15.08849954,0.0001497,53.2173,142.2325,83.7433,276.373,7.2248e-05,8.62e-06,0.0,0 STARLINK-5125,1 53994U 22125AG  24013.74723630  .00000862  00000-0  72248-4 0  9997,2 53994  53.2173 142.2325 0001497  83.7433 276.3730 15.08849954 70885,6917.85,95.437,540.751,538.679,0.0
53994.0,STARLINK-5125,PAYLOAD,2024-01-14 14:36:02,15.08846762,0.0001758,53.2179,138.3654,114.0707,246.0469,6.4225e-05,7.34e-06,0.0,0 STARLINK-5125,1 53994U 22125AG  24014.60835806  .00000734  00000-0  64225-4 0  9996,2 53994  53.2179 138.3654 0001758 114.0707 246.0469 15.08846762 70948,6917.86,95.437,540.941,538.509,0.0
